[{"OBJECT_NAME":"LEMUR-2-GREENBERG","OBJECT_ID":"2017-042N","EPOCH":"2026-03-09T11:05:17.256192","MEAN_MOTION":15.27971352,"ECCENTRICITY":0.00091572,"INCLINATION":97.3781,"RA_OF_ASC_NODE":249.8007,"ARG_OF_PERICENTER":4.0119,"MEAN_ANOMALY":356.1192,"EPHEMERIS_TYPE":0,"CLASSIFICATION_TYPE":"U","NORAD_CAT_ID":42837,"ELEMENT_SET_NO":999,"REV_AT_EPOCH":47314,"BSTAR":0.00072539172,"MEAN_MOTION_DOT":0.00019778,"MEAN_MOTION_DDOT":0},{"OBJECT_NAME":"STARLINK-35102","OBJECT_ID":"2025-221S","EPOCH":"2026-03-09T08:58:49.437984","MEAN_MOTION":15.30198355,"ECCENTRICITY":0.00015194,"INCLINATION":53.1603,"RA_OF_ASC_NODE":89.9119,"ARG_OF_PERICENTER":83.6627,"MEAN_ANOMALY":276.4546,"EPHEMERIS_TYPE":0,"CLASSIFICATION_TYPE":"U","NORAD_CAT_ID":65839,"ELEMENT_SET_NO":999,"REV_AT_EPOCH":2468,"BSTAR":0.00080424396,"MEAN_MOTION_DOT":0.00023535,"MEAN_MOTION_DDOT":0}]
