LEMUR-2-GREENBERG       
1 42837U 17042N   26068.46200528  .00019778  00000+0  72539-3 0  9997
2 42837  97.3781 249.8007 0009157   4.0119 356.1192 15.27971352473146
STARLINK-35102          
1 65839U 25221S   26068.37418331  .00023535  00000+0  80424-3 0  9993
2 65839  53.1603  89.9119 0001519  83.6627 276.4546 15.30198355 24680
